SITRO-AIS 26            
1 59067U 24039S   24089.95112669  .00006622  00000+0  65278-3 0  9993
2 59067  95.3971  43.7717 0172353 255.1263 103.0813 14.81673402  4373
SITRO-AIS 27            
1 59068U 24039T   24089.94905139  .00006578  00000+0  64695-3 0  9997
2 59068  95.3973  43.7747 0172124 255.0084 103.2027 14.81789636  4371
SITRO-AIS 28            
1 59071U 24039U   24089.94832129  .00006547  00000+0  64356-3 0  9999
2 59071  95.3972  43.7759 0171972 255.0079 103.2049 14.81826073  4372
